{
    "links": {
        "self": "http://www.neowsapp.com/rest/v1/neo/3653912?api_key=iIulBulltgU6a56xZRHN4H3l9WmuAYTsLGpBGhQ2"
    },
    "id": "3653912",
    "neo_reference_id": "3653912",
    "name": "(2013 WD44)",
    "designation": "2013 WD44",
    "nasa_jpl_url": "http://ssd.jpl.nasa.gov/sbdb.cgi?sstr=3653912",
    "absolute_magnitude_h": 25.7,
    "estimated_diameter": {
        "kilometers": {
            "estimated_diameter_min": 0.0192555078,
            "estimated_diameter_max": 0.0430566244
        },
        "meters": {
            "estimated_diameter_min": 19.2555078188,
            "estimated_diameter_max": 43.0566244241
        },
        "miles": {
            "estimated_diameter_min": 0.0119648141,
            "estimated_diameter_max": 0.0267541378
        },
        "feet": {
            "estimated_diameter_min": 63.1742402722,
            "estimated_diameter_max": 141.2618956756
        }
    },
    "is_potentially_hazardous_asteroid": false,
    "close_approach_data": [
        {
            "close_approach_date": "2013-12-23",
            "close_approach_date_full": "2013-Dec-23 21:56",
            "epoch_date_close_approach": 1387835760000,
            "relative_velocity": {
                "kilometers_per_second": "4.8594045178",
                "kilometers_per_hour": "17493.8562642341",
                "miles_per_hour": "10870.0019659626"
            },
            "miss_distance": {
                "astronomical": "0.059808762",
                "lunar": "23.265608418",
                "kilometers": "8947263.40253694",
                "miles": "5559571.677572172"
            },
            "orbiting_body": "Earth"
        }
    ],
    "orbital_data": {
        "orbit_id": "4",
        "orbit_determination_date": "2017-04-06 08:43:33",
        "first_observation_date": "2013-11-28",
        "last_observation_date": "2013-11-29",
        "data_arc_in_days": 1,
        "observations_used": 16,
        "orbit_uncertainty": "9",
        "minimum_orbit_intersection": ".0560298",
        "jupiter_tisserand_invariant": "4.207",
        "epoch_osculation": "2456625.5",
        "eccentricity": ".3726417874865106",
        "semi_major_axis": "1.643540831463526",
        "inclination": "3.513799060570144",
        "ascending_node_longitude": "251.3798126254769",
        "orbital_period": "769.6072917855397",
        "perihelion_distance": "1.031088838219892",
        "perihelion_argument": "212.1597327027395",
        "aphelion_distance": "2.255992824707161",
        "perihelion_time": "2456659.880786083094",
        "mean_anomaly": "343.9176640839795",
        "mean_motion": ".4677710357509428",
        "equinox": "J2000",
        "orbit_class": {
            "orbit_class_type": "AMO",
            "orbit_class_description": "Near-Earth asteroid orbits similar to that of 1221 Amor",
            "orbit_class_range": "1.017 AU < q (perihelion) < 1.3 AU"
        }
    },
    "is_sentry_object": false
}